{"type": "FeatureCollection", "features": [ {"type": "Feature", "properties": {"norad_id": 34432, "name": "COSMOS 2251 DEB", "group": "cosmos-2251-debris", "lat": -11.261860877523963, "lon": -91.83189385418949, "alt_km": 768.0990503770072, "timestamp": "2025-12-22T15:43:49.403899+00:00", "meta": {"OBJECT_NAME": "COSMOS 2251 DEB", "OBJECT_ID": "1993-036RZ", "EPOCH": "2025-12-21T17:09:52.890336", "MEAN_MOTION": 14.02941941, "ECCENTRICITY": 0.01817423, "INCLINATION": 73.8282, "RA_OF_ASC_NODE": 86.5116, "ARG_OF_PERICENTER": 167.7838, "MEAN_ANOMALY": 316.0088, "EPHEMERIS_TYPE": 0, "CLASSIFICATION_TYPE": "U", "NORAD_CAT_ID": 34432, "ELEMENT_SET_NO": 999, "REV_AT_EPOCH": 85810, "BSTAR": 0.00083158444, "MEAN_MOTION_DOT": 1.467e-05, "MEAN_MOTION_DDOT": 0}, "tle": {"line1": "1 34432U 93036RZ  25355.71519549  .00001467  00000+0  83158-3 0  9993", "line2": "2 34432  73.8282  86.5116 0181742 167.7838 316.0088 14.02941941858101"}}, "geometry": {"type": "Point", "coordinates": [-91.83189385418949, -11.261860877523963]}}, {"type": "Feature", "properties": {"norad_id": 34433, "name": "COSMOS 2251 DEB", "group": "cosmos-2251-debris", "lat": -26.66598229934312, "lon": -34.34291016556502, "alt_km": 807.8407127142282, "timestamp": "2025-12-22T15:43:49.403909+00:00", "meta": {"OBJECT_NAME": "COSMOS 2251 DEB", "OBJECT_ID": "1993-036SA", "EPOCH": "2025-12-21T20:02:32.025696", "MEAN_MOTION": 14.12888627, "ECCENTRICITY": 0.01527964, "INCLINATION": 74.0104, "RA_OF_ASC_NODE": 138.8303, "ARG_OF_PERICENTER": 274.9863, "MEAN_ANOMALY": 83.385, "EPHEMERIS_TYPE": 0, "CLASSIFICATION_TYPE": "U", "NORAD_CAT_ID": 34433, "ELEMENT_SET_NO": 999, "REV_AT_EPOCH": 86078, "BSTAR": 0.00089614535, "MEAN_MOTION_DOT": 1.837e-05, "MEAN_MOTION_DDOT": 0}, "tle": {"line1": "1 34433U 93036SA  25355.83509289  .00001837  00000+0  89615-3 0  9992", "line2": "2 34433  74.0104 138.8303 0152796 274.9863  83.3850 14.12888627860783"}}, "geometry": {"type": "Point", "coordinates": [-34.34291016556502, -26.66598229934312]}}, {"type": "Feature", "properties": {"norad_id": 34434, "name": "COSMOS 2251 DEB", "group": "cosmos-2251-debris", "lat": -4.094863722007938, "lon": -7.9113838402889645, "alt_km": 1063.922766583617, "timestamp": "2025-12-22T15:43:49.403920+00:00", "meta": {"OBJECT_NAME": "COSMOS 2251 DEB", "OBJECT_ID": "1993-036SB", "EPOCH": "2025-12-22T05:52:45.991200", "MEAN_MOTION": 13.89860433, "ECCENTRICITY": 0.02738237, "INCLINATION": 74.0622, "RA_OF_ASC_NODE": 353.9587, "ARG_OF_PERICENTER": 128.9839, "MEAN_ANOMALY": 336.2969, "EPHEMERIS_TYPE": 0, "CLASSIFICATION_TYPE": "U", "NORAD_CAT_ID": 34434, "ELEMENT_SET_NO": 999, "REV_AT_EPOCH": 84098, "BSTAR": 0.0014276754, "MEAN_MOTION_DOT": 2.354e-05, "MEAN_MOTION_DDOT": 0}, "tle": {"line1": "1 34434U 93036SB  25356.24497675  .00002354  00000+0  14277-2 0  9990", "line2": "2 34434  74.0622 353.9587 0273823 128.9839 336.2969 13.89860433840988"}}, "geometry": {"type": "Point", "coordinates": [-7.9113838402889645, -4.094863722007938]}}, {"type": "Feature", "properties": {"norad_id": 34446, "name": "COSMOS 2251 DEB", "group": "cosmos-2251-debris", "lat": 31.32749169582917, "lon": -151.34308204720168, "alt_km": 693.5412448902243, "timestamp": "2025-12-22T15:43:49.403929+00:00", "meta": {"OBJECT_NAME": "COSMOS 2251 DEB", "OBJECT_ID": "1993-036SP", "EPOCH": "2025-12-21T22:29:12.990624", "MEAN_MOTION": 14.49362668, "ECCENTRICITY": 0.0050696, "INCLINATION": 74.0416, "RA_OF_ASC_NODE": 40.034, "ARG_OF_PERICENTER": 175.8746, "MEAN_ANOMALY": 184.2843, "EPHEMERIS_TYPE": 0, "CLASSIFICATION_TYPE": "U", "NORAD_CAT_ID": 34446, "ELEMENT_SET_NO": 999, "REV_AT_EPOCH": 88827, "BSTAR": 0.00011387, "MEAN_MOTION_DOT": 4.14e-06, "MEAN_MOTION_DDOT": 0}, "tle": {"line1": "1 34446U 93036SP  25355.93695591  .00000414  00000+0  11387-3 0  9990", "line2": "2 34446  74.0416  40.0340 0050696 175.8746 184.2843 14.49362668888272"}}, "geometry": {"type": "Point", "coordinates": [-151.34308204720168, 31.32749169582917]}}, {"type": "Feature", "properties": {"norad_id": 34449, "name": "COSMOS 2251 DEB", "group": "cosmos-2251-debris", "lat": 49.42632986006008, "lon": -148.9809379926049, "alt_km": 564.3834352223948, "timestamp": "2025-12-22T15:43:49.403940+00:00", "meta": {"OBJECT_NAME": "COSMOS 2251 DEB", "OBJECT_ID": "1993-036SS", "EPOCH": "2025-12-21T14:01:22.624032", "MEAN_MOTION": 14.9530995, "ECCENTRICITY": 0.0022739, "INCLINATION": 74.0321, "RA_OF_ASC_NODE": 52.7148, "ARG_OF_PERICENTER": 89.8054, "MEAN_ANOMALY": 34.0385, "EPHEMERIS_TYPE": 0, "CLASSIFICATION_TYPE": "U", "NORAD_CAT_ID": 34449, "ELEMENT_SET_NO": 999, "REV_AT_EPOCH": 88825, "BSTAR": 0.0018531, "MEAN_MOTION_DOT": 0.00020555, "MEAN_MOTION_DDOT": 0}, "tle": {"line1": "1 34449U 93036SS  25355.58428963  .00020555  00000+0  18531-2 0  9996", "line2": "2 34449  74.0321  52.7148 0022739  89.8054  34.0385 14.95309950888256"}}, "geometry": {"type": "Point", "coordinates": [-148.9809379926049, 49.42632986006008]}}, {"type": "Feature", "properties": {"norad_id": 34451, "name": "COSMOS 2251 DEB", "group": "cosmos-2251-debris", "lat": 52.888642932053656, "lon": -134.35555618393155, "alt_km": 561.3364068312794, "timestamp": "2025-12-22T15:43:49.403950+00:00", "meta": {"OBJECT_NAME": "COSMOS 2251 DEB", "OBJECT_ID": "1993-036SU", "EPOCH": "2025-12-22T05:33:05.101056", "MEAN_MOTION": 14.96073953, "ECCENTRICITY": 0.00238449, "INCLINATION": 74.0466, "RA_OF_ASC_NODE": 68.7153, "ARG_OF_PERICENTER": 82.7849, "MEAN_ANOMALY": 277.6045, "EPHEMERIS_TYPE": 0, "CLASSIFICATION_TYPE": "U", "NORAD_CAT_ID": 34451, "ELEMENT_SET_NO": 999, "REV_AT_EPOCH": 88777, "BSTAR": 0.0029135722, "MEAN_MOTION_DOT": 0.00033055, "MEAN_MOTION_DDOT": 0}, "tle": {"line1": "1 34451U 93036SU  25356.23130904  .00033055  00000+0  29136-2 0  9999", "line2": "2 34451  74.0466  68.7153 0023844  82.7849 277.6045 14.96073953887770"}}, "geometry": {"type": "Point", "coordinates": [-134.35555618393155, 52.888642932053656]}}, {"type": "Feature", "properties": {"norad_id": 34452, "name": "COSMOS 2251 DEB", "group": "cosmos-2251-debris", "lat": 58.57171712843013, "lon": -169.7643960244522, "alt_km": 568.7414286860512, "timestamp": "2025-12-22T15:43:49.403960+00:00", "meta": {"OBJECT_NAME": "COSMOS 2251 DEB", "OBJECT_ID": "1993-036SV", "EPOCH": "2025-12-22T06:11:51.890208", "MEAN_MOTION": 15.11920756, "ECCENTRICITY": 0.00647153, "INCLINATION": 74.032, "RA_OF_ASC_NODE": 163.1157, "ARG_OF_PERICENTER": 237.3087, "MEAN_ANOMALY": 184.4245, "EPHEMERIS_TYPE": 0, "CLASSIFICATION_TYPE": "U", "NORAD_CAT_ID": 34452, "ELEMENT_SET_NO": 999, "REV_AT_EPOCH": 90806, "BSTAR": 0.0009769322, "MEAN_MOTION_DOT": 0.0001761, "MEAN_MOTION_DDOT": 0}, "tle": {"line1": "1 34452U 93036SV  25356.25823947  .00017610  00000+0  97693-3 0  9991", "line2": "2 34452  74.0320 163.1157 0064715 237.3087 184.4245 15.11920756908061"}}, "geometry": {"type": "Point", "coordinates": [-169.7643960244522, 58.57171712843013]}}, {"type": "Feature", "properties": {"norad_id": 34454, "name": "COSMOS 2251 DEB", "group": "cosmos-2251-debris", "lat": 13.409437219717493, "lon": -96.71602919894714, "alt_km": 748.0365443355513, "timestamp": "2025-12-22T15:43:49.403970+00:00", "meta": {"OBJECT_NAME": "COSMOS 2251 DEB", "OBJECT_ID": "1993-036SX", "EPOCH": "2025-12-22T03:59:06.492768", "MEAN_MOTION": 14.38822755, "ECCENTRICITY": 0.00358897, "INCLINATION": 74.0586, "RA_OF_ASC_NODE": 260.2776, "ARG_OF_PERICENTER": 320.9292, "MEAN_ANOMALY": 38.9271, "EPHEMERIS_TYPE": 0, "CLASSIFICATION_TYPE": "U", "NORAD_CAT_ID": 34454, "ELEMENT_SET_NO": 999, "REV_AT_EPOCH": 88203, "BSTAR": 0.0002070495, "MEAN_MOTION_DOT": 6.15e-06, "MEAN_MOTION_DDOT": 0}, "tle": {"line1": "1 34454U 93036SX  25356.16604737  .00000615  00000+0  20705-3 0  9994", "line2": "2 34454  74.0586 260.2776 0035889 320.9292  38.9271 14.38822755882038"}}, "geometry": {"type": "Point", "coordinates": [-96.71602919894714, 13.409437219717493]}}, {"type": "Feature", "properties": {"norad_id": 34459, "name": "COSMOS 2251 DEB", "group": "cosmos-2251-debris", "lat": 73.80048894446455, "lon": -43.81685157804882, "alt_km": 994.5456454919777, "timestamp": "2025-12-22T15:43:49.403980+00:00", "meta": {"OBJECT_NAME": "COSMOS 2251 DEB", "OBJECT_ID": "1993-036TC", "EPOCH": "2025-12-22T01:35:59.550144", "MEAN_MOTION": 14.00513623, "ECCENTRICITY": 0.01921145, "INCLINATION": 74.0786, "RA_OF_ASC_NODE": 237.9285, "ARG_OF_PERICENTER": 305.6081, "MEAN_ANOMALY": 52.7285, "EPHEMERIS_TYPE": 0, "CLASSIFICATION_TYPE": "U", "NORAD_CAT_ID": 34459, "ELEMENT_SET_NO": 999, "REV_AT_EPOCH": 85842, "BSTAR": 0.00037140359, "MEAN_MOTION_DOT": 6.22e-06, "MEAN_MOTION_DDOT": 0}, "tle": {"line1": "1 34459U 93036TC  25356.06666146  .00000622  00000+0  37140-3 0  9999", "line2": "2 34459  74.0786 237.9285 0192114 305.6081  52.7285 14.00513623858427"}}, "geometry": {"type": "Point", "coordinates": [-43.81685157804882, 73.80048894446455]}}, {"type": "Feature", "properties": {"norad_id": 34464, "name": "COSMOS 2251 DEB", "group": "cosmos-2251-debris", "lat": 72.57427824129975, "lon": 123.36821612906323, "alt_km": 482.37424517909494, "timestamp": "2025-12-22T15:43:49.403990+00:00", "meta": {"OBJECT_NAME": "COSMOS 2251 DEB", "OBJECT_ID": "1993-036TH", "EPOCH": "2025-12-22T04:22:13.819296", "MEAN_MOTION": 15.28316951, "ECCENTRICITY": 0.00144677, "INCLINATION": 73.989, "RA_OF_ASC_NODE": 58.1879, "ARG_OF_PERICENTER": 240.7326, "MEAN_ANOMALY": 119.2429, "EPHEMERIS_TYPE": 0, "CLASSIFICATION_TYPE": "U", "NORAD_CAT_ID": 34464, "ELEMENT_SET_NO": 999, "REV_AT_EPOCH": 89984, "BSTAR": 0.0030220789, "MEAN_MOTION_DOT": 0.00084545, "MEAN_MOTION_DDOT": 0}, "tle": {"line1": "1 34464U 93036TH  25356.18210439  .00084545  00000+0  30221-2 0  9996", "line2": "2 34464  73.9890  58.1879 0014467 240.7326 119.2429 15.28316951899840"}}, "geometry": {"type": "Point", "coordinates": [123.36821612906323, 72.57427824129975]}}]}